[{"OBJECT_NAME":"STARLINK-5981","OBJECT_ID":"2023-058J","EPOCH":"2026-03-09T22:14:54.545280","MEAN_MOTION":15.01258925,"ECCENTRICITY":0.00032383,"INCLINATION":97.6037,"RA_OF_ASC_NODE":70.4064,"ARG_OF_PERICENTER":76.6419,"MEAN_ANOMALY":283.5166,"EPHEMERIS_TYPE":0,"CLASSIFICATION_TYPE":"U","NORAD_CAT_ID":56325,"ELEMENT_SET_NO":999,"REV_AT_EPOCH":15816,"BSTAR":3.306275e-6,"MEAN_MOTION_DOT":-1.6e-7,"MEAN_MOTION_DDOT":0},{"OBJECT_NAME":"ICEYE-X45","OBJECT_ID":"2025-009DA","EPOCH":"2026-03-09T17:22:29.842464","MEAN_MOTION":15.00857928,"ECCENTRICITY":8.841e-5,"INCLINATION":97.8049,"RA_OF_ASC_NODE":154.8158,"ARG_OF_PERICENTER":73.7941,"MEAN_ANOMALY":286.338,"EPHEMERIS_TYPE":0,"CLASSIFICATION_TYPE":"U","NORAD_CAT_ID":62705,"ELEMENT_SET_NO":999,"REV_AT_EPOCH":6276,"BSTAR":0.00045352987,"MEAN_MOTION_DOT":5.708e-5,"MEAN_MOTION_DDOT":0}]
